CAS500-2 RIDESHARE OBJE*
1 68986U 26100G   26129.83337963 -.00060244  00000+0 -60306-2 0  9992
2 68986  97.7388  28.0007 0000427 193.2448 136.4557 14.91750236  1305
