{
  "norad_id": 68986,
  "name": "CAS500-2 RIDESHARE OBJECT G",
  "history": [
    {
      "epoch": "2026-05-09T20:00:04.000032Z",
      "apogee_km": 592.7756666414953,
      "perigee_km": 592.1803761186693,
      "latitude_deg": -30.253413369018638,
      "longitude_deg": -135.13985930806632,
      "height_km": 604.0926364151177,
      "semi_major_axis_km": 6970.615021380082,
      "eccentricity": 4.27e-05,
      "inclination_deg": 97.7388,
      "raan_deg": 28.0007,
      "arg_perigee_deg": 193.2448,
      "mean_anomaly_deg": 136.4557,
      "mean_motion_rev_day": 14.91750236
    }
  ]
}